SAUDISAT 1C (SO-50)     
1 27607U 02058C   26170.85258546  .00000740  00000+0  10489-3 0  9991
2 27607  64.5513 120.7383 0075162 261.9782  97.2791 14.83051819264858
SAUDISAT 2              
1 28371U 04025F   26170.57045906  .00000171  00000+0  49334-4 0  9999
2 28371  98.5507 170.6140 0023518 290.5721  69.2953 14.56685005166097
SAUDISAT 3              
1 31118U 07012B   26170.36675582  .00000195  00000+0  39630-4 0  9991
2 31118  98.1456 120.7689 0013769 216.4508 143.5762 14.71426689 28066
PISAT                   
1 41784U 16059B   26170.45994244  .00000646  00000+0  11764-3 0  9999
2 41784  97.8178 170.8151 0028576 195.3619 164.6722 14.68986663520070
FLYING LAPTOP           
1 42831U 17042G   26170.85181932  .00002975  00000+0  23569-3 0  9995
2 42831  97.4702 326.2820 0019679 113.0315 247.2988 15.01160999486850
SALSAT                  
1 46495U 20068K   26170.82728722  .00006419  00000+0  22493-3 0  9990
2 46495  97.8854 174.0526 0007893 297.0230  63.0203 15.29831081315760
